start=new Date('2022-06-21T00:00:00.000Z').valueOf();
sats=[{"TLE_LINE1":"1 48675U 21044AP  22171.48929575  .00001382  00000-0  11166-3 0  9995","COUNTRY_CODE":"US","BSTAR":"0.00011166000000","REF_FRAME":"TEME","ARG_OF_PERICENTER":"65.6343","TIME_SYSTEM":"UTC","DECAY_DATE":null,"RCS_SIZE":"MEDIUM","INCLINATION":"53.0564","ELEMENT_SET_NO":"999","PERIOD":"95.592","CLASSIFICATION_TYPE":"U","MEAN_ANOMALY":"294.4818","ECCENTRICITY":"0.00016450","REV_AT_EPOCH":"5997","OBJECT_NAME":"STARLINK-2737","MEAN_MOTION_DOT":"0.00001382","TLE_LINE2":"2 48675  53.0564  88.8262 0001645  65.6343 294.4818 15.06404919 59977","SITE":"AFETR","CENTER_NAME":"EARTH","PERIAPSIS":"546.059","OBJECT_ID":"2021-044AP","SEMIMAJOR_AXIS":"6925.333","GP_ID":"206486141","APOAPSIS":"548.338","FILE":"3498183","MEAN_MOTION":"15.06404919","EPHEMERIS_TYPE":"0","OBJECT_TYPE":"PAYLOAD","NORAD_CAT_ID":"48675","RA_OF_ASC_NODE":"88.8262","MEAN_MOTION_DDOT":"0.0000000000000","LAUNCH_DATE":"2021-05-26","EPOCH":"2022-06-20T11:44:35.152800","MEAN_ELEMENT_THEORY":"SGP4"},{"LAUNCH_DATE":"2021-05-26","MEAN_MOTION_DDOT":"0.0000000000000","RA_OF_ASC_NODE":"88.8377","NORAD_CAT_ID":"48676","EPOCH":"2022-06-20T11:39:16.649568","MEAN_ELEMENT_THEORY":"SGP4","APOAPSIS":"548.399","SEMIMAJOR_AXIS":"6925.344","GP_ID":"206480670","OBJECT_ID":"2021-044AQ","PERIAPSIS":"546.020","SITE":"AFETR","TLE_LINE2":"2 48676  53.0540  88.8377 0001718  60.8835 299.2325 15.06401379 59134","CENTER_NAME":"EARTH","OBJECT_TYPE":"PAYLOAD","EPHEMERIS_TYPE":"0","FILE":"3498071","MEAN_MOTION":"15.06401379","ECCENTRICITY":"0.00017180","MEAN_ANOMALY":"299.2325","CLASSIFICATION_TYPE":"U","MEAN_MOTION_DOT":"0.00002388","OBJECT_NAME":"STARLINK-2746","REV_AT_EPOCH":"5913","REF_FRAME":"TEME","BSTAR":"0.00017916000000","COUNTRY_CODE":"US","TLE_LINE1":"1 48676U 21044AQ  22171.48560937  .00002388  00000-0  17916-3 0  9995","PERIOD":"95.592","ELEMENT_SET_NO":"999","INCLINATION":"53.0540","RCS_SIZE":"MEDIUM","DECAY_DATE":null,"TIME_SYSTEM":"UTC","ARG_OF_PERICENTER":"60.8835"},{"DECAY_DATE":null,"ARG_OF_PERICENTER":"65.4986","TIME_SYSTEM":"UTC","ELEMENT_SET_NO":"999","PERIOD":"95.593","RCS_SIZE":"LARGE","INCLINATION":"53.0565","TLE_LINE1":"1 48677U 21044AR  22171.48098912 -.00000437  00000-0 -10474-4 0  9993","REF_FRAME":"TEME","COUNTRY_CODE":"US","BSTAR":"-0.00001047400000","OBJECT_NAME":"STARLINK-2719","MEAN_MOTION_DOT":"-0.00000437","REV_AT_EPOCH":"5913","CLASSIFICATION_TYPE":"U","ECCENTRICITY":"0.00015060","MEAN_ANOMALY":"294.6160","MEAN_MOTION":"15.06392287","FILE":"3498071","EPHEMERIS_TYPE":"0","OBJECT_TYPE":"PAYLOAD","CENTER_NAME":"EARTH","TLE_LINE2":"2 48677  53.0565  88.8481 0001506  65.4986 294.6160 15.06392287 59134","SITE":"AFETR","PERIAPSIS":"546.194","APOAPSIS":"548.280","OBJECT_ID":"2021-044AR","SEMIMAJOR_AXIS":"6925.372","GP_ID":"206480917","EPOCH":"2022-06-20T11:32:37.459968","MEAN_ELEMENT_THEORY":"SGP4","MEAN_MOTION_DDOT":"0.0000000000000","NORAD_CAT_ID":"48677","RA_OF_ASC_NODE":"88.8481","LAUNCH_DATE":"2021-05-26"},{"EPOCH":"2022-06-20T17:50:49.516224","MEAN_ELEMENT_THEORY":"SGP4","LAUNCH_DATE":"2021-05-26","MEAN_MOTION_DDOT":"0.0000000000000","NORAD_CAT_ID":"48678","RA_OF_ASC_NODE":"87.6787","EPHEMERIS_TYPE":"0","OBJECT_TYPE":"PAYLOAD","FILE":"3498404","MEAN_MOTION":"15.06395380","APOAPSIS":"548.433","OBJECT_ID":"2021-044AS","SEMIMAJOR_AXIS":"6925.363","GP_ID":"206513978","TLE_LINE2":"2 48678  53.0546  87.6787 0001741  57.6178 302.4980 15.06395380 59176","CENTER_NAME":"EARTH","SITE":"AFETR","PERIAPSIS":"546.022","OBJECT_NAME":"STARLINK-2615","MEAN_MOTION_DOT":"0.00000462","REV_AT_EPOCH":"5917","CLASSIFICATION_TYPE":"U","MEAN_ANOMALY":"302.4980","ECCENTRICITY":"0.00017410","ELEMENT_SET_NO":"999","PERIOD":"95.592","RCS_SIZE":"LARGE","INCLINATION":"53.0546","DECAY_DATE":null,"ARG_OF_PERICENTER":"57.6178","TIME_SYSTEM":"UTC","REF_FRAME":"TEME","COUNTRY_CODE":"US","BSTAR":"0.00004989200000","TLE_LINE1":"1 48678U 21044AS  22171.74362866  .00000462  00000-0  49892-4 0  9997"},{"ARG_OF_PERICENTER":"61.3746","TIME_SYSTEM":"UTC","DECAY_DATE":null,"RCS_SIZE":"LARGE","INCLINATION":"53.0555","ELEMENT_SET_NO":"999","PERIOD":"95.593","TLE_LINE1":"1 48679U 21044AT  22171.47455953  .00000141  00000-0  28361-4 0  9990","COUNTRY_CODE":"US","BSTAR":"0.00002836100000","REF_FRAME":"TEME","REV_AT_EPOCH":"5913","OBJECT_NAME":"STARLINK-2648","MEAN_MOTION_DOT":"0.00000141","CLASSIFICATION_TYPE":"U","MEAN_ANOMALY":"298.7386","ECCENTRICITY":"0.00014220","FILE":"3498071","MEAN_MOTION":"15.06393931","EPHEMERIS_TYPE":"0","OBJECT_TYPE":"PAYLOAD","CENTER_NAME":"EARTH","TLE_LINE2":"2 48679  53.0555  88.8925 0001422  61.3746 298.7386 15.06393931 59136","SITE":"AFETR","PERIAPSIS":"546.247","OBJECT_ID":"2021-044AT","GP_ID":"206479918","SEMIMAJOR_AXIS":"6925.367","APOAPSIS":"548.217","EPOCH":"2022-06-20T11:23:21.943392","MEAN_ELEMENT_THEORY":"SGP4","NORAD_CAT_ID":"48679","RA_OF_ASC_NODE":"88.8925","MEAN_MOTION_DDOT":"0.0000000000000","LAUNCH_DATE":"2021-05-26"},{"REF_FRAME":"TEME","COUNTRY_CODE":"US","BSTAR":"0.00011357000000","TLE_LINE1":"1 48680U 21044AU  22171.80260666  .00001410  00000-0  11357-3 0  9990","ELEMENT_SET_NO":"999","PERIOD":"95.593","RCS_SIZE":"LARGE","INCLINATION":"53.0552","DECAY_DATE":null,"ARG_OF_PERICENTER":"53.6205","TIME_SYSTEM":"UTC","CLASSIFICATION_TYPE":"U","ECCENTRICITY":"0.00019330","MEAN_ANOMALY":"306.4962","OBJECT_NAME":"STARLINK-2649","MEAN_MOTION_DOT":"0.00001410","REV_AT_EPOCH":"5918","APOAPSIS":"548.585","OBJECT_ID":"2021-044AU","GP_ID":"206513491","SEMIMAJOR_AXIS":"6925.381","TLE_LINE2":"2 48680  53.0552  87.4251 0001933  53.6205 306.4962 15.06389322 59184","SITE":"AFETR","CENTER_NAME":"EARTH","PERIAPSIS":"545.908","EPHEMERIS_TYPE":"0","OBJECT_TYPE":"PAYLOAD","MEAN_MOTION":"15.06389322","FILE":"3498404","LAUNCH_DATE":"2021-05-26","MEAN_MOTION_DDOT":"0.0000000000000","NORAD_CAT_ID":"48680","RA_OF_ASC_NODE":"87.4251","EPOCH":"2022-06-20T19:15:45.215424","MEAN_ELEMENT_THEORY":"SGP4"},{"EPHEMERIS_TYPE":"0","OBJECT_TYPE":"PAYLOAD","FILE":"3498404","MEAN_MOTION":"15.06397844","OBJECT_ID":"2021-044AV","GP_ID":"206513234","SEMIMAJOR_AXIS":"6925.355","APOAPSIS":"548.338","CENTER_NAME":"EARTH","TLE_LINE2":"2 48681  53.0564  57.6468 0001614  72.3425 287.7740 15.06397844 59593","SITE":"AFETR","PERIAPSIS":"546.102","EPOCH":"2022-06-20T19:14:28.260672","MEAN_ELEMENT_THEORY":"SGP4","LAUNCH_DATE":"2021-05-26","NORAD_CAT_ID":"48681","RA_OF_ASC_NODE":"57.6468","MEAN_MOTION_DDOT":"0.0000000000000","RCS_SIZE":"LARGE","INCLINATION":"53.0564","ELEMENT_SET_NO":"999","PERIOD":"95.592","ARG_OF_PERICENTER":"72.3425","TIME_SYSTEM":"UTC","DECAY_DATE":null,"COUNTRY_CODE":"US","BSTAR":"0.00008334500000","REF_FRAME":"TEME","TLE_LINE1":"1 48681U 21044AV  22171.80171598  .00000960  00000-0  83345-4 0  9992","REV_AT_EPOCH":"5959","OBJECT_NAME":"STARLINK-2725","MEAN_MOTION_DOT":"0.00000960","CLASSIFICATION_TYPE":"U","ECCENTRICITY":"0.00016140","MEAN_ANOMALY":"287.7740"},{"DECAY_DATE":null,"ARG_OF_PERICENTER":"51.8530","TIME_SYSTEM":"UTC","ELEMENT_SET_NO":"999","PERIOD":"95.593","RCS_SIZE":"LARGE","INCLINATION":"53.0567","TLE_LINE1":"1 48682U 21044AW  22171.91667824 -.00001444  00000-0 -78075-4 0  9991","REF_FRAME":"TEME","COUNTRY_CODE":"US","BSTAR":"-0.00007807500000","OBJECT_NAME":"STARLINK-2743","MEAN_MOTION_DOT":"-0.00001444","REV_AT_EPOCH":"130","CLASSIFICATION_TYPE":"U","ECCENTRICITY":"0.00018630","MEAN_ANOMALY":"227.1223","MEAN_MOTION":"15.06386549","FILE":"3498404","EPHEMERIS_TYPE":"0","OBJECT_TYPE":"PAYLOAD","TLE_LINE2":"2 48682  53.0567  47.0658 0001863  51.8530 227.1223 15.06386549  1306","CENTER_NAME":"EARTH","SITE":"AFETR","PERIAPSIS":"545.965","APOAPSIS":"548.545","OBJECT_ID":"2021-044AW","GP_ID":"206513478","SEMIMAJOR_AXIS":"6925.390","EPOCH":"2022-06-20T22:00:00.999936","MEAN_ELEMENT_THEORY":"SGP4","MEAN_MOTION_DDOT":"0.0000000000000","NORAD_CAT_ID":"48682","RA_OF_ASC_NODE":"47.0658","LAUNCH_DATE":"2021-05-26"},{"REV_AT_EPOCH":"5974","MEAN_MOTION_DOT":"0.00001249","OBJECT_NAME":"STARLINK-2756","ECCENTRICITY":"0.00015100","MEAN_ANOMALY":"295.1609","CLASSIFICATION_TYPE":"U","INCLINATION":"53.0563","RCS_SIZE":"LARGE","PERIOD":"95.592","ELEMENT_SET_NO":"999","TIME_SYSTEM":"UTC","ARG_OF_PERICENTER":"64.9536","DECAY_DATE":null,"BSTAR":"0.00010270000000","COUNTRY_CODE":"US","REF_FRAME":"TEME","TLE_LINE1":"1 48683U 21044AX  22171.82103298  .00001249  00000-0  10270-3 0  9995","EPOCH":"2022-06-20T19:42:17.249472","MEAN_ELEMENT_THEORY":"SGP4","LAUNCH_DATE":"2021-05-26","NORAD_CAT_ID":"48683","RA_OF_ASC_NODE":"47.3450","MEAN_MOTION_DDOT":"0.0000000000000","OBJECT_TYPE":"PAYLOAD","EPHEMERIS_TYPE":"0","MEAN_MOTION":"15.06399515","FILE":"3498404","SEMIMAJOR_AXIS":"6925.350","GP_ID":"206512241","OBJECT_ID":"2021-044AX","APOAPSIS":"548.261","PERIAPSIS":"546.169","CENTER_NAME":"EARTH","TLE_LINE2":"2 48683  53.0563  47.3450 0001510  64.9536 295.1609 15.06399515 59747","SITE":"AFETR"},{"TLE_LINE2":"2 48684  53.0554  65.8614 0001387  58.7415 301.3709 15.06396580 59429","SITE":"AFETR","CENTER_NAME":"EARTH","PERIAPSIS":"546.263","OBJECT_ID":"2021-044AY","GP_ID":"206480671","SEMIMAJOR_AXIS":"6925.359","APOAPSIS":"548.185","MEAN_MOTION":"15.06396580","FILE":"3498071","EPHEMERIS_TYPE":"0","OBJECT_TYPE":"PAYLOAD","NORAD_CAT_ID":"48684","RA_OF_ASC_NODE":"65.8614","MEAN_MOTION_DDOT":"0.0000000000000","LAUNCH_DATE":"2021-05-26","EPOCH":"2022-06-20T02:43:56.055936","MEAN_ELEMENT_THEORY":"SGP4","TLE_LINE1":"1 48684U 21044AY  22171.11384324  .00001132  00000-0  94873-4 0  9992","COUNTRY_CODE":"US","BSTAR":"0.00009487300000","REF_FRAME":"TEME","ARG_OF_PERICENTER":"58.7415","TIME_SYSTEM":"UTC","DECAY_DATE":null,"RCS_SIZE":"LARGE","INCLINATION":"53.0554","ELEMENT_SET_NO":"999","PERIOD":"95.592","CLASSIFICATION_TYPE":"U","ECCENTRICITY":"0.00013870","MEAN_ANOMALY":"301.3709","REV_AT_EPOCH":"5942","OBJECT_NAME":"STARLINK-2741","MEAN_MOTION_DOT":"0.00001132"}];
